[{"OBJECT_NAME":"LEMUR-2-AMANDA-SVANTE","OBJECT_ID":"2021-034B","EPOCH":"2026-03-09T18:37:58.823328","MEAN_MOTION":15.28469003,"ECCENTRICITY":0.00027027,"INCLINATION":97.5829,"RA_OF_ASC_NODE":144.8625,"ARG_OF_PERICENTER":205.4721,"MEAN_ANOMALY":154.6385,"EPHEMERIS_TYPE":0,"CLASSIFICATION_TYPE":"U","NORAD_CAT_ID":48269,"ELEMENT_SET_NO":999,"REV_AT_EPOCH":26584,"BSTAR":0.0011134246,"MEAN_MOTION_DOT":0.00030872,"MEAN_MOTION_DDOT":0},{"OBJECT_NAME":"STARLINK-32915","OBJECT_ID":"2025-043W","EPOCH":"2026-03-08T21:49:09.885216","MEAN_MOTION":15.27588605,"ECCENTRICITY":0.0001231,"INCLINATION":42.9991,"RA_OF_ASC_NODE":27.4604,"ARG_OF_PERICENTER":246.1784,"MEAN_ANOMALY":113.8939,"EPHEMERIS_TYPE":0,"CLASSIFICATION_TYPE":"U","NORAD_CAT_ID":63152,"ELEMENT_SET_NO":999,"REV_AT_EPOCH":5716,"BSTAR":0.0013152863,"MEAN_MOTION_DOT":0.00036119,"MEAN_MOTION_DDOT":0}]
